[{"OBJECT_NAME":"STARLINK-5832","OBJECT_ID":"2023-088R","EPOCH":"2025-07-31T12:26:20.014944","MEAN_MOTION":15.02535667,"ECCENTRICITY":0.0001124,"INCLINATION":43.0013,"RA_OF_ASC_NODE":228.9272,"ARG_OF_PERICENTER":279.5452,"MEAN_ANOMALY":80.5263,"EPHEMERIS_TYPE":0,"CLASSIFICATION_TYPE":"U","NORAD_CAT_ID":57063,"ELEMENT_SET_NO":999,"REV_AT_EPOCH":11620,"BSTAR":1.304e-6,"MEAN_MOTION_DOT":-1.86e-6,"MEAN_MOTION_DDOT":0},{"OBJECT_NAME":"STARLINK-5822","OBJECT_ID":"2023-088S","EPOCH":"2025-07-31T02:08:58.508448","MEAN_MOTION":15.02534957,"ECCENTRICITY":0.0001395,"INCLINATION":43.0019,"RA_OF_ASC_NODE":231.7241,"ARG_OF_PERICENTER":272.5355,"MEAN_ANOMALY":87.5328,"EPHEMERIS_TYPE":0,"CLASSIFICATION_TYPE":"U","NORAD_CAT_ID":57064,"ELEMENT_SET_NO":999,"REV_AT_EPOCH":11605,"BSTAR":4.0061e-5,"MEAN_MOTION_DOT":3.38e-6,"MEAN_MOTION_DDOT":0},{"OBJECT_NAME":"STARLINK-5830","OBJECT_ID":"2023-088T","EPOCH":"2025-07-30T12:16:11.690688","MEAN_MOTION":15.02516714,"ECCENTRICITY":0.0001225,"INCLINATION":43.0026,"RA_OF_ASC_NODE":235.1169,"ARG_OF_PERICENTER":273.9713,"MEAN_ANOMALY":86.0989,"EPHEMERIS_TYPE":0,"CLASSIFICATION_TYPE":"U","NORAD_CAT_ID":57065,"ELEMENT_SET_NO":999,"REV_AT_EPOCH":11596,"BSTAR":0.00012858,"MEAN_MOTION_DOT":1.533e-5,"MEAN_MOTION_DDOT":0},{"OBJECT_NAME":"STARLINK-5827","OBJECT_ID":"2023-088U","EPOCH":"2025-07-31T09:19:40.137600","MEAN_MOTION":15.02534885,"ECCENTRICITY":0.0001433,"INCLINATION":43.0021,"RA_OF_ASC_NODE":229.6759,"ARG_OF_PERICENTER":274.7603,"MEAN_ANOMALY":85.3075,"EPHEMERIS_TYPE":0,"CLASSIFICATION_TYPE":"U","NORAD_CAT_ID":57066,"ELEMENT_SET_NO":999,"REV_AT_EPOCH":11610,"BSTAR":7.0057e-5,"MEAN_MOTION_DOT":7.43e-6,"MEAN_MOTION_DDOT":0},{"OBJECT_NAME":"STARLINK-5824","OBJECT_ID":"2023-088V","EPOCH":"2025-07-31T02:04:10.560576","MEAN_MOTION":15.02537776,"ECCENTRICITY":0.0001525,"INCLINATION":43.0019,"RA_OF_ASC_NODE":231.6944,"ARG_OF_PERICENTER":285.1148,"MEAN_ANOMALY":74.9526,"EPHEMERIS_TYPE":0,"CLASSIFICATION_TYPE":"U","NORAD_CAT_ID":57067,"ELEMENT_SET_NO":999,"REV_AT_EPOCH":11703,"BSTAR":2.482e-5,"MEAN_MOTION_DOT":1.32e-6,"MEAN_MOTION_DDOT":0},{"OBJECT_NAME":"STARLINK-5844","OBJECT_ID":"2023-088W","EPOCH":"2025-07-31T12:21:32.182848","MEAN_MOTION":15.02533369,"ECCENTRICITY":0.0001448,"INCLINATION":43.0023,"RA_OF_ASC_NODE":228.9021,"ARG_OF_PERICENTER":277.9044,"MEAN_ANOMALY":82.1634,"EPHEMERIS_TYPE":0,"CLASSIFICATION_TYPE":"U","NORAD_CAT_ID":57068,"ELEMENT_SET_NO":999,"REV_AT_EPOCH":11710,"BSTAR":4.666e-5,"MEAN_MOTION_DOT":4.27e-6,"MEAN_MOTION_DDOT":0},{"OBJECT_NAME":"STARLINK-5821","OBJECT_ID":"2023-088X","EPOCH":"2025-07-31T00:52:48.395136","MEAN_MOTION":15.02529421,"ECCENTRICITY":0.0001491,"INCLINATION":43.0025,"RA_OF_ASC_NODE":219.1864,"ARG_OF_PERICENTER":271.0907,"MEAN_ANOMALY":88.9764,"EPHEMERIS_TYPE":0,"CLASSIFICATION_TYPE":"U","NORAD_CAT_ID":57069,"ELEMENT_SET_NO":999,"REV_AT_EPOCH":11700,"BSTAR":6.7743e-5,"MEAN_MOTION_DOT":7.11e-6,"MEAN_MOTION_DDOT":0},{"OBJECT_NAME":"STARLINK-5828","OBJECT_ID":"2023-088Y","EPOCH":"2025-07-31T01:18:22.358880","MEAN_MOTION":15.02535408,"ECCENTRICITY":0.0001213,"INCLINATION":43.0019,"RA_OF_ASC_NODE":219.323,"ARG_OF_PERICENTER":280.5036,"MEAN_ANOMALY":79.567,"EPHEMERIS_TYPE":0,"CLASSIFICATION_TYPE":"U","NORAD_CAT_ID":57070,"ELEMENT_SET_NO":999,"REV_AT_EPOCH":11717,"BSTAR":-2.9826e-5,"MEAN_MOTION_DOT":-6.06e-6,"MEAN_MOTION_DDOT":0},{"OBJECT_NAME":"STARLINK-5834","OBJECT_ID":"2023-088Z","EPOCH":"2025-07-31T01:03:59.594400","MEAN_MOTION":15.02537882,"ECCENTRICITY":0.000134,"INCLINATION":43.003,"RA_OF_ASC_NODE":219.2444,"ARG_OF_PERICENTER":284.9842,"MEAN_ANOMALY":75.0852,"EPHEMERIS_TYPE":0,"CLASSIFICATION_TYPE":"U","NORAD_CAT_ID":57071,"ELEMENT_SET_NO":999,"REV_AT_EPOCH":11700,"BSTAR":5.29e-5,"MEAN_MOTION_DOT":5.11e-6,"MEAN_MOTION_DDOT":0},{"OBJECT_NAME":"STARLINK-5843","OBJECT_ID":"2023-088AA","EPOCH":"2025-07-31T01:11:58.522560","MEAN_MOTION":15.02537473,"ECCENTRICITY":0.0001379,"INCLINATION":43.003,"RA_OF_ASC_NODE":219.2879,"ARG_OF_PERICENTER":279.0603,"MEAN_ANOMALY":81.0083,"EPHEMERIS_TYPE":0,"CLASSIFICATION_TYPE":"U","NORAD_CAT_ID":57072,"ELEMENT_SET_NO":999,"REV_AT_EPOCH":11619,"BSTAR":1.0693e-6,"MEAN_MOTION_DOT":-1.89e-6,"MEAN_MOTION_DDOT":0},{"OBJECT_NAME":"STARLINK-5838","OBJECT_ID":"2023-088AB","EPOCH":"2025-07-31T12:26:52.607616","MEAN_MOTION":15.02537414,"ECCENTRICITY":0.0001235,"INCLINATION":43.0027,"RA_OF_ASC_NODE":216.7827,"ARG_OF_PERICENTER":272.7586,"MEAN_ANOMALY":87.3115,"EPHEMERIS_TYPE":0,"CLASSIFICATION_TYPE":"U","NORAD_CAT_ID":57073,"ELEMENT_SET_NO":999,"REV_AT_EPOCH":11626,"BSTAR":8.0523e-5,"MEAN_MOTION_DOT":8.84e-6,"MEAN_MOTION_DDOT":0},{"OBJECT_NAME":"STARLINK-5773","OBJECT_ID":"2023-088AC","EPOCH":"2025-07-31T09:05:16.750176","MEAN_MOTION":15.02539465,"ECCENTRICITY":0.0001224,"INCLINATION":43.0016,"RA_OF_ASC_NODE":229.5986,"ARG_OF_PERICENTER":274.5161,"MEAN_ANOMALY":85.5542,"EPHEMERIS_TYPE":0,"CLASSIFICATION_TYPE":"U","NORAD_CAT_ID":57074,"ELEMENT_SET_NO":999,"REV_AT_EPOCH":11708,"BSTAR":4.4853e-5,"MEAN_MOTION_DOT":4.02e-6,"MEAN_MOTION_DDOT":0},{"OBJECT_NAME":"STARLINK-5542","OBJECT_ID":"2023-088AD","EPOCH":"2025-07-31T11:56:30.076512","MEAN_MOTION":15.02548197,"ECCENTRICITY":0.0001242,"INCLINATION":43.0022,"RA_OF_ASC_NODE":216.625,"ARG_OF_PERICENTER":276.4115,"MEAN_ANOMALY":83.6586,"EPHEMERIS_TYPE":0,"CLASSIFICATION_TYPE":"U","NORAD_CAT_ID":57075,"ELEMENT_SET_NO":999,"REV_AT_EPOCH":11724,"BSTAR":6.3502e-5,"MEAN_MOTION_DOT":6.55e-6,"MEAN_MOTION_DDOT":0},{"OBJECT_NAME":"STARLINK-6155","OBJECT_ID":"2023-088AE","EPOCH":"2025-07-31T09:07:25.709088","MEAN_MOTION":15.02545351,"ECCENTRICITY":0.0001612,"INCLINATION":43.0019,"RA_OF_ASC_NODE":217.4672,"ARG_OF_PERICENTER":296.255,"MEAN_ANOMALY":63.8126,"EPHEMERIS_TYPE":0,"CLASSIFICATION_TYPE":"U","NORAD_CAT_ID":57076,"ELEMENT_SET_NO":999,"REV_AT_EPOCH":11705,"BSTAR":8.6299e-5,"MEAN_MOTION_DOT":9.62e-6,"MEAN_MOTION_DDOT":0},{"OBJECT_NAME":"STARLINK-6194","OBJECT_ID":"2023-088AF","EPOCH":"2025-07-30T08:57:07.352064","MEAN_MOTION":15.02530094,"ECCENTRICITY":0.0001162,"INCLINATION":43.0018,"RA_OF_ASC_NODE":222.8081,"ARG_OF_PERICENTER":270.9623,"MEAN_ANOMALY":89.1086,"EPHEMERIS_TYPE":0,"CLASSIFICATION_TYPE":"U","NORAD_CAT_ID":57077,"ELEMENT_SET_NO":999,"REV_AT_EPOCH":11724,"BSTAR":-3.2323e-5,"MEAN_MOTION_DOT":-6.4e-6,"MEAN_MOTION_DDOT":0},{"OBJECT_NAME":"STARLINK-6246","OBJECT_ID":"2023-088AG","EPOCH":"2025-07-31T01:07:11.102592","MEAN_MOTION":15.02534428,"ECCENTRICITY":0.0001288,"INCLINATION":43.0017,"RA_OF_ASC_NODE":219.2611,"ARG_OF_PERICENTER":279.0064,"MEAN_ANOMALY":81.0633,"EPHEMERIS_TYPE":0,"CLASSIFICATION_TYPE":"U","NORAD_CAT_ID":57078,"ELEMENT_SET_NO":999,"REV_AT_EPOCH":11700,"BSTAR":-1.2262e-5,"MEAN_MOTION_DOT":-3.69e-6,"MEAN_MOTION_DDOT":0},{"OBJECT_NAME":"STARLINK-6245","OBJECT_ID":"2023-088AH","EPOCH":"2025-07-31T02:14:08.413152","MEAN_MOTION":15.02535597,"ECCENTRICITY":0.0001413,"INCLINATION":43.0015,"RA_OF_ASC_NODE":218.7504,"ARG_OF_PERICENTER":278.6836,"MEAN_ANOMALY":81.3847,"EPHEMERIS_TYPE":0,"CLASSIFICATION_TYPE":"U","NORAD_CAT_ID":57079,"ELEMENT_SET_NO":999,"REV_AT_EPOCH":11718,"BSTAR":1.4889e-5,"MEAN_MOTION_DOT":-3.0e-8,"MEAN_MOTION_DDOT":0},{"OBJECT_NAME":"STARLINK-6243","OBJECT_ID":"2023-088AJ","EPOCH":"2025-07-31T10:33:33.485760","MEAN_MOTION":15.02537838,"ECCENTRICITY":0.0001141,"INCLINATION":43.0029,"RA_OF_ASC_NODE":217.0524,"ARG_OF_PERICENTER":274.6795,"MEAN_ANOMALY":85.3917,"EPHEMERIS_TYPE":0,"CLASSIFICATION_TYPE":"U","NORAD_CAT_ID":57080,"ELEMENT_SET_NO":999,"REV_AT_EPOCH":11706,"BSTAR":3.2311e-5,"MEAN_MOTION_DOT":2.33e-6,"MEAN_MOTION_DDOT":0},{"OBJECT_NAME":"STARLINK-6184","OBJECT_ID":"2023-088AK","EPOCH":"2025-07-31T11:43:42.879936","MEAN_MOTION":15.0253942,"ECCENTRICITY":0.000133,"INCLINATION":43.0033,"RA_OF_ASC_NODE":216.556,"ARG_OF_PERICENTER":280.7492,"MEAN_ANOMALY":79.32,"EPHEMERIS_TYPE":0,"CLASSIFICATION_TYPE":"U","NORAD_CAT_ID":57081,"ELEMENT_SET_NO":999,"REV_AT_EPOCH":11724,"BSTAR":4.0114e-5,"MEAN_MOTION_DOT":3.38e-6,"MEAN_MOTION_DDOT":0},{"OBJECT_NAME":"STARLINK-6248","OBJECT_ID":"2023-088AL","EPOCH":"2025-07-31T10:17:34.578816","MEAN_MOTION":15.02535061,"ECCENTRICITY":0.0001321,"INCLINATION":43.0025,"RA_OF_ASC_NODE":216.9691,"ARG_OF_PERICENTER":280.4776,"MEAN_ANOMALY":79.5918,"EPHEMERIS_TYPE":0,"CLASSIFICATION_TYPE":"U","NORAD_CAT_ID":57082,"ELEMENT_SET_NO":999,"REV_AT_EPOCH":11723,"BSTAR":5.1885e-5,"MEAN_MOTION_DOT":4.97e-6,"MEAN_MOTION_DDOT":0},{"OBJECT_NAME":"STARLINK-6253","OBJECT_ID":"2023-088AM","EPOCH":"2025-07-31T09:56:50.176032","MEAN_MOTION":15.02516805,"ECCENTRICITY":0.0001151,"INCLINATION":43.0015,"RA_OF_ASC_NODE":216.859,"ARG_OF_PERICENTER":279.7085,"MEAN_ANOMALY":80.3627,"EPHEMERIS_TYPE":0,"CLASSIFICATION_TYPE":"U","NORAD_CAT_ID":57083,"ELEMENT_SET_NO":999,"REV_AT_EPOCH":11723,"BSTAR":-0.00013655,"MEAN_MOTION_DOT":-2.047e-5,"MEAN_MOTION_DDOT":0},{"OBJECT_NAME":"STARLINK-6240","OBJECT_ID":"2023-088AN","EPOCH":"2025-07-31T00:35:14.511264","MEAN_MOTION":15.02527482,"ECCENTRICITY":0.0001438,"INCLINATION":43.0027,"RA_OF_ASC_NODE":219.0909,"ARG_OF_PERICENTER":281.7987,"MEAN_ANOMALY":78.2694,"EPHEMERIS_TYPE":0,"CLASSIFICATION_TYPE":"U","NORAD_CAT_ID":57084,"ELEMENT_SET_NO":999,"REV_AT_EPOCH":11717,"BSTAR":0.00010014,"MEAN_MOTION_DOT":1.149e-5,"MEAN_MOTION_DDOT":0},{"OBJECT_NAME":"STARLINK-6232","OBJECT_ID":"2023-088AP","EPOCH":"2025-07-31T11:26:08.320416","MEAN_MOTION":15.02533027,"ECCENTRICITY":0.0001223,"INCLINATION":43.0027,"RA_OF_ASC_NODE":216.4615,"ARG_OF_PERICENTER":277.5076,"MEAN_ANOMALY":82.5628,"EPHEMERIS_TYPE":0,"CLASSIFICATION_TYPE":"U","NORAD_CAT_ID":57085,"ELEMENT_SET_NO":999,"REV_AT_EPOCH":11724,"BSTAR":4.3498e-5,"MEAN_MOTION_DOT":3.84e-6,"MEAN_MOTION_DDOT":0}]
